OPS 6582 (TRANSIT 5B-5) 
1 00965U 64083D   24189.59715331  .00000080  00000+0  99011-4 0  9990
2 00965  90.0435 198.3941 0040888 190.1810 290.8098 13.56889610947379
LES-1                   
1 01002U 65008C   24189.38244275  .00000027  00000+0  24587-2 0  9997
2 01002  32.1446 286.2104 0014418 230.4165 129.5059  9.88354061145967
SOLRAD 7B               
1 01291U 65016D   24189.77387772  .00000025  00000+0  57373-4 0  9998
2 01291  70.0803 304.3255 0022443 326.7179  33.2514 13.94795820 18268
SECOR 4 (EGRS 4)        
1 01315U 65027B   24189.94958748  .00000057  00000+0  18238-3 0  9994
2 01315  90.2394 359.7618 0029449 251.2911 262.1659 12.92642828795801
TIROS 10                
1 01430U 65051A   24189.86483473  .00000288  00000+0  10155-3 0  9994
2 01430  98.4394 304.3907 0056721  50.5099 310.1086 14.40950824 94168
ALOUETTE 2              
1 01804U 65098A   24189.94444417  .00000299  00000+0  99288-4 0  9991
2 01804  79.8010 159.4835 1335308 229.3577 118.3717 12.27091583591824
OV3-3                   
1 02389U 66070A   24189.38985061  .00015025  00000+0  74963-3 0  9999
2 02389  81.3320 226.4140 1120654 168.7660 194.0923 13.20053867504308
SECOR 7 (EGRS 7)        
1 02411U 66077B   24188.66728696  .00000020  00000+0  90754-2 0  9995
2 02411  90.3316 269.1563 0015040  58.0695 302.1617  8.59615533816322
ERS 15                  
1 02412U 66077C   24189.15430149  .00000002  00000+0  00000+0 0  9996
2 02412  90.3317 268.9603 0009198  64.6035 295.5768  8.59077122329488
ISIS 1                  
1 03669U 69009A   24189.34487821  .00000109  00000+0  79042-4 0  9994
2 03669  88.4363 221.9691 1708233 241.0337 100.9025 11.29929763279589
SECOR 13 (EGRS 13)      
1 03891U 69037B   24189.70293671 -.00000011  00000+0  56273-4 0  9994
2 03891  99.7508  77.3385 0039324 189.4966 236.2684 13.42929023706984
ATS 5                   
1 04068U 69069A   24189.40150909 -.00000252  00000+0  00000+0 0  9998
2 04068   1.7788 267.7131 0003186 348.3234 147.7756  0.99495845 39263
OPS 7613 (P/L 4)        
1 04237U 69082E   24189.42755583  .00000059  00000+0  82050-4 0  9996
2 04237  70.0133 179.8876 0021789 329.2148 182.6169 13.95772796787252
OPS 7613 (P/L 1)        
1 04256U 69082B   24189.35061358  .00000141  00000+0  13464-3 0  9993
2 04256  70.0102  49.5215 0021715 274.0341  85.8284 13.98797954791185
SHINSEI (MS-F2)         
1 05485U 71080A   24189.41132578  .00000029  00000+0  30287-4 0  9997
2 05485  32.0546 294.2402 0639974  26.1498 337.0009 12.74198311458685
PROSPERO (BLACK ARROW)  
1 05580U 71093A   24189.96628209  .00002320  00000+0  50416-3 0  9999
2 05580  82.0382 191.9432 0517131  96.5892 269.4392 13.97940176650361
OPS 7898 (P/L 2)        
1 05680U 71110C   24189.89718711  .00000013  00000+0  66642-4 0  9996
2 05680  69.9904  26.5749 0009073 324.5957  35.4534 13.74645853251946
NOAA 2 (ITOS-D)         
1 06235U 72082A   24189.84048606 -.00000025  00000+0  13788-3 0  9992
2 06235 102.0149 189.0504 0004525  82.3130 346.2271 12.53182111366325
OSCAR 7 (AO-7)          
1 07530U 74089B   24189.59071624 -.00000037  00000+0  56261-4 0  9995
2 07530 101.9781 184.4300 0012555  46.6832  80.2039 12.53676745271830
TIROS N                 
1 11060U 78096A   24189.58872648  .00000265  00000+0  14730-3 0  9990
2 11060  98.5308 229.2196 0011419 132.9678 227.2457 14.18843429578100
PHASE 3B (AO-10)        
1 14129U 83058B   24187.83974847 -.00000255  00000+0  00000+0 0  9994
2 14129  27.4278 336.1245 6033922 282.3100  19.8282  2.05866253280843
HILAT                   
1 14154U 83063A   24189.30476853  .00000550  00000+0  17699-3 0  9999
2 14154  82.0248 100.5972 0038643 281.5919 199.5844 14.37561133145547
UOSAT 2 (UO-11)         
1 14781U 84021B   24189.81836113  .00001855  00000+0  21380-3 0  9996
2 14781  97.7056 158.4724 0008497  20.5394 339.6162 14.86828852172551
NOAA 9                  
1 15427U 84123A   24189.93764919  .00000182  00000+0  11453-3 0  9996
2 15427  99.1179 187.8831 0014429 193.8126 224.4401 14.16615279 43223
GEOSAT                  
1 15595U 85021A   24190.18332934  .00000219  00000+0  11450-3 0  9995
2 15595 108.0605  46.1115 0002115 256.1727 103.9179 14.39050516 61038
EUTELSAT 1-F4 (ECS 4)   
1 18351U 87078B   24189.55724571 -.00000047  00000+0  00000+0 0  9998
2 18351  14.3359 347.1422 0009163  51.2939 125.2264  0.98688529119756
AKEBONO (EXOS-D)        
1 19822U 89016A   24189.88661336  .00151172  42760-5  86135-3 0  9998
2 19822  74.9263 172.2096 0676397 182.5270 177.2434 14.54685518229429
PACSAT (AO-16)          
1 20439U 90005D   24189.28827426  .00000239  00000+0  10357-3 0  9997
2 20439  98.8993 194.9758 0011285 147.9726 225.2172 14.33405504800213
LUSAT (LO-19)           
1 20442U 90005G   24189.39476799  .00000215  00000+0  94576-4 0  9996
2 20442  98.8827 180.1938 0012618 123.5580 236.6810 14.33566143800671
IRS-1B                  
1 21688U 91061A   24189.54999884  .00000275  00000+0  22729-3 0  9990
2 21688  99.3657 170.0693 0025103 130.3971 336.0494 13.97634328569350
COSMOS 2197             
1 22034U 92042A   24189.43425109  .00000013  00000+0  10045-4 0  9997
2 22034  82.5963 322.4623 0013596  90.4376 332.9957 12.64217003475607
